OBJECT_NAME,OBJECT_ID,EPOCH,MEAN_MOTION,ECCENTRICITY,INCLINATION,RA_OF_ASC_NODE,ARG_OF_PERICENTER,MEAN_ANOMALY,EPHEMERIS_TYPE,CLASSIFICATION_TYPE,NORAD_CAT_ID,ELEMENT_SET_NO,REV_AT_EPOCH,BSTAR,MEAN_MOTION_DOT,MEAN_MOTION_DDOT
EUTELSAT HOTBIRD 13F,2022-134A,2026-07-06T01:52:47.081280,1.00271421,.00018456,0.0530,287.7193,73.5434,324.0087,0,U,54048,999,1356,0,.101E-5,0
LDPE-2,2022-144A,2026-07-05T16:35:55.295808,1.00540932,.00023496,5.6546,63.4969,102.8956,226.4579,0,U,54219,999,1202,0,.88E-6,0
EUTELSAT HOTBIRD 13G,2022-146A,2026-07-06T00:22:57.279072,1.00269337,.00023415,0.0490,216.4897,324.3238,121.9314,0,U,54225,999,765,0,.101E-5,0
ZHONGXING-19,2022-148A,2026-07-06T06:00:54.680832,1.00270933,.00030259,0.0414,253.9314,237.6974,46.0375,0,U,54230,999,1357,0,-.67E-6,0
GALAXY 31 (G-31),2022-153A,2026-07-05T21:49:15.643776,1.00272424,.00013938,0.0241,93.4797,12.8884,23.8446,0,U,54243,999,732,0,.27E-6,0
GALAXY 32 (G-32),2022-153B,2026-07-06T03:05:41.667072,1.00271060,.00016842,0.0098,10.1353,39.8195,189.5913,0,U,54244,999,1333,0,-.16E-5,0
EUTELSAT 10B,2022-157A,2026-07-06T01:51:54.664992,1.00272555,.00022742,0.0568,95.1789,33.5812,193.3014,0,U,54259,999,1321,0,.83E-6,0
GALAXY 35 (G-35),2022-170A,2026-07-06T04:03:34.463232,1.00271951,.00021222,0.0198,88.4316,18.8562,144.6608,0,U,54741,999,1308,0,-.148E-5,0
GALAXY 36 (G-36),2022-170B,2026-07-06T02:35:55.761792,1.00271396,.00027234,0.0208,132.7280,323.8236,137.5283,0,U,54742,999,1296,0,-.171E-5,0
METEOSAT-12 (MTG-I1),2022-170C,2026-07-06T01:49:02.440416,1.00276475,.00034337,0.7587,25.7918,76.4656,208.8801,0,U,54743,999,1316,0,.8E-7,0
SHIJIAN-23 (SJ-23),2023-002A,2026-07-02T18:38:54.470976,1.00083356,.0003517,3.7551,78.1245,278.1911,341.9054,0,U,55131,999,1266,0,-.31E-5,0
APSTAR-6E,2023-005A,2026-07-06T07:35:12.450912,1.00272655,.00016183,0.0432,219.3821,340.1144,332.6009,0,U,55239,999,1888,0,-.303E-5,0
USA 342,2023-008A,2026-07-01T03:52:39.557280,1.00270158,.0000567,0.0057,55.5286,166.1191,139.6640,0,U,55263,999,1265,0,0,0
LDPE-3A,2023-008B,2026-07-05T19:48:31.877280,0.99151494,.00015496,2.3933,81.4433,67.1421,247.9464,0,U,55264,999,1199,0,-.162E-5,0
ELEKTRO-L 4,2023-016A,2026-07-05T18:01:55.623936,1.00272018,.00011194,0.0977,135.3366,43.9069,180.7567,0,U,55506,999,1252,0,-.44E-6,0
AMAZONAS NEXUS,2023-017A,2026-07-06T02:27:26.366400,1.00269856,.00046832,0.0334,38.7620,48.7544,172.4416,0,U,55508,999,723,0,-.268E-5,0
ZHONGXING-26,2023-023A,2026-07-05T00:44:52.592064,1.00269854,.0003198,0.0622,70.4316,30.6934,318.2586,0,U,55686,999,1240,0,-.341E-5,0
LUCH-5X (OLYMP-K 2),2023-031A,2026-07-02T18:37:40.484064,1.00269692,.0001113,0.0299,86.0246,152.0734,24.0844,0,U,55841,999,1209,0,.44E-6,0
GAOFEN-13 02,2023-036A,2026-07-06T04:13:54.135264,1.00266520,.00034964,1.0242,3.3855,332.2495,160.1165,0,U,55912,999,1228,0,-.207E-5,0
SES-18,2023-038A,2026-07-05T15:03:44.017920,1.00272114,.00001976,0.0325,273.6889,277.4668,215.3017,0,U,55970,999,1228,0,-.87E-6,0
SES-19,2023-038B,2026-07-06T02:53:11.289984,1.00271228,.00018192,0.0390,282.4465,190.3094,79.7480,0,U,55971,999,1228,0,.102E-5,0
INTELSAT 40E (IS-40E),2023-052A,2026-07-06T03:05:41.667072,1.00268896,.00023729,0.0140,43.9018,98.3385,97.3013,0,U,56174,999,1201,0,0,0
VIASAT-3 F1,2023-060A,2026-07-06T02:35:55.761792,1.00269559,.00008089,0.0190,7.9986,105.9280,120.1876,0,U,56370,999,1162,0,0,0
ARCTURUS,2023-060B,2026-07-06T02:14:15.023616,1.00597912,.00005628,2.8223,79.7051,145.5794,180.7298,0,U,56371,999,1164,0,-.262E-5,0
GS-1,2023-060C,2026-07-05T21:28:49.869696,1.00269367,.00035656,2.7728,79.6113,280.8186,335.0788,0,U,56372,999,772,0,-.211E-5,0
BEIDOU-3 G4,2023-066A,2026-07-06T07:36:57.282624,1.00266978,.00050563,0.4680,336.2681,178.9361,23.3037,0,U,56564,999,1158,0,-.268E-5,0
ARABSAT-7B (BADR-8),2023-075A,2026-07-06T03:39:04.972896,1.00271623,.00035635,0.0747,30.7187,2.3103,331.8751,0,U,56757,999,1130,0,.159E-5,0
NVS-01 (IRNSS-1J),2023-076A,2026-07-06T00:43:23.379744,1.00269803,.00031558,2.1243,243.5096,7.6434,173.2786,0,U,56759,999,1130,0,-.321E-5,0
NUSANTARA TIGA (SATRIA),2023-086A,2026-07-05T23:05:19.476672,1.00274493,.0002965,0.0343,4.9508,339.2087,72.1295,0,U,57045,999,994,0,-.22E-5,0
H2SAT (HEINRICH HERTZ),2023-093A,2026-07-05T20:41:14.618400,1.00261410,.00014053,0.0166,98.7891,52.7637,83.3218,0,U,57213,999,1110,0,.14E-6,0
SYRACUSE 4B,2023-093B,2026-07-06T00:04:28.511328,1.00269653,.00004012,0.0208,40.8143,180.2259,57.6097,0,U,57214,999,715,0,0,0
