EUTELSAT HOTBIRD 13F    
1 54048U 22134A   26187.07832270  .00000101  00000+0  00000+0 0  9996
2 54048   0.0530 287.7193 0001845  73.5434 324.0087  1.00271421 13569
LDPE-2                  
1 54219U 22144A   26186.69161222  .00000088  00000+0  00000+0 0  9990
2 54219   5.6546  63.4969 0002349 102.8956 226.4579  1.00540932 12029
EUTELSAT HOTBIRD 13G    
1 54225U 22146A   26187.01594073  .00000101  00000+0  00000+0 0  9996
2 54225   0.0490 216.4897 0002341 324.3238 121.9314  1.00269337  7655
ZHONGXING-19            
1 54230U 22148A   26187.25063288 -.00000067  00000+0  00000+0 0  9991
2 54230   0.0414 253.9314 0003025 237.6974  46.0375  1.00270933 13576
GALAXY 31 (G-31)        
1 54243U 22153A   26186.90920884  .00000027  00000+0  00000+0 0  9991
2 54243   0.0241  93.4797 0001393  12.8884  23.8446  1.00272424  7324
GALAXY 32 (G-32)        
1 54244U 22153B   26187.12895448 -.00000160  00000+0  00000+0 0  9993
2 54244   0.0098  10.1353 0001684  39.8195 189.5913  1.00271060 13338
EUTELSAT 10B            
1 54259U 22157A   26187.07771603  .00000083  00000+0  00000+0 0  9996
2 54259   0.0568  95.1789 0002274  33.5812 193.3014  1.00272555 13217
GALAXY 35 (G-35)        
1 54741U 22170A   26187.16914888 -.00000148  00000+0  00000+0 0  9994
2 54741   0.0198  88.4316 0002122  18.8562 144.6608  1.00271951 13085
GALAXY 36 (G-36)        
1 54742U 22170B   26187.10828428 -.00000171  00000+0  00000+0 0  9999
2 54742   0.0208 132.7280 0002723 323.8236 137.5283  1.00271396 12964
METEOSAT-12 (MTG-I1)    
1 54743U 22170C   26187.07572269  .00000008  00000+0  00000+0 0  9993
2 54743   0.7587  25.7918 0003433  76.4656 208.8801  1.00276475 13161
SHIJIAN-23 (SJ-23)      
1 55131U 23002A   26183.77701934 -.00000310  00000+0  00000+0 0  9993
2 55131   3.7551  78.1245 0003517 278.1911 341.9054  1.00083356 12667
APSTAR-6E               
1 55239U 23005A   26187.31611633 -.00000303  00000+0  00000+0 0  9997
2 55239   0.0432 219.3821 0001618 340.1144 332.6009  1.00272655 18880
USA 342                 
1 55263U 23008A   26182.16156895  .00000000  00000+0  00000+0 0  9992
2 55263   0.0057  55.5286 0000567 166.1191 139.6640  1.00270158 12656
LDPE-3A                 
1 55264U 23008B   26186.82536895 -.00000162  00000+0  00000+0 0  9992
2 55264   2.3933  81.4433 0001549  67.1421 247.9464  0.99151494 11995
ELEKTRO-L 4             
1 55506U 23016A   26186.75133824 -.00000044  00000+0  00000+0 0  9996
2 55506   0.0977 135.3366 0001119  43.9069 180.7567  1.00272018 12521
AMAZONAS NEXUS          
1 55508U 23017A   26187.10238850 -.00000268  00000+0  00000+0 0  9992
2 55508   0.0334  38.7620 0004683  48.7544 172.4416  1.00269856  7238
ZHONGXING-26            
1 55686U 23023A   26186.03116426 -.00000341  00000+0  00000+0 0  9993
2 55686   0.0622  70.4316 0003198  30.6934 318.2586  1.00269854 12404
LUCH-5X (OLYMP-K 2)     
1 55841U 23031A   26183.77616301  .00000044  00000+0  00000+0 0  9999
2 55841   0.0299  86.0246 0001113 152.0734  24.0844  1.00269692 12098
GAOFEN-13 02            
1 55912U 23036A   26187.17632101 -.00000207  00000+0  00000+0 0  9999
2 55912   1.0242   3.3855 0003496 332.2495 160.1165  1.00266520 12282
SES-18                  
1 55970U 23038A   26186.62759280 -.00000087  00000+0  00000+0 0  9998
2 55970   0.0325 273.6889 0000197 277.4668 215.3017  1.00272114 12288
SES-19                  
1 55971U 23038B   26187.12026956  .00000102  00000+0  00000+0 0  9999
2 55971   0.0390 282.4465 0001819 190.3094  79.7480  1.00271228 12288
INTELSAT 40E (IS-40E)   
1 56174U 23052A   26187.12895448  .00000000  00000+0  00000+0 0  9998
2 56174   0.0140  43.9018 0002372  98.3385  97.3013  1.00268896 12012
VIASAT-3 F1             
1 56370U 23060A   26187.10828428  .00000000  00000+0  00000+0 0  9997
2 56370   0.0190   7.9986 0000808 105.9280 120.1876  1.00269559 11625
ARCTURUS                
1 56371U 23060B   26187.09322944 -.00000262  00000+0  00000+0 0  9999
2 56371   2.8223  79.7051 0000562 145.5794 180.7298  1.00597912 11649
GS-1                    
1 56372U 23060C   26186.89502164 -.00000211  00000+0  00000+0 0  9995
2 56372   2.7728  79.6113 0003565 280.8186 335.0788  1.00269367  7724
BEIDOU-3 G4             
1 56564U 23066A   26187.31732966 -.00000268  00000+0  00000+0 0  9999
2 56564   0.4680 336.2681 0005056 178.9361  23.3037  1.00266978 11588
ARABSAT-7B (BADR-8)     
1 56757U 23075A   26187.15214089  .00000159  00000+0  00000+0 0  9994
2 56757   0.0747  30.7187 0003563   2.3103 331.8751  1.00271623 11307
NVS-01 (IRNSS-1J)       
1 56759U 23076A   26187.03013171 -.00000321  00000+0  00000+0 0  9995
2 56759   2.1243 243.5096 0003155   7.6434 173.2786  1.00269803 11301
NUSANTARA TIGA (SATRIA) 
1 57045U 23086A   26186.96203098 -.00000220  00000+0  00000+0 0  9993
2 57045   0.0343   4.9508 0002965 339.2087  72.1295  1.00274493  9941
H2SAT (HEINRICH HERTZ)  
1 57213U 23093A   26186.86197475  .00000014  00000+0  00000+0 0  9998
2 57213   0.0166  98.7891 0001405  52.7637  83.3218  1.00261410 11108
SYRACUSE 4B             
1 57214U 23093B   26187.00310777  .00000000  00000+0  00000+0 0  9993
2 57214   0.0208  40.8143 0000401 180.2259  57.6097  1.00269653  7152
